STARLINK-36408          
1 67473U 26008AE  26034.50002314 -.02032675  00000+0 -21383-1 0  9997
2 67473  42.9997  40.6592 0001111 283.9769 170.1520 15.66718035  4320
ALSAT-3A                
1 67474U 26009A   26034.45829019  .00007531  00000+0  31925-3 0  9996
2 67474  97.4690 109.1430 0012039 188.1434 171.9609 15.23355913  2919
CZ-2C R/B               
1 67475U 26009B   26034.25289564  .00003922  00000+0  26472-3 0  9991
2 67475  97.1776 107.3294 0100076 156.6973 203.8838 15.03081095  2900
TIANQI-37               
1 67476U 26010A   26034.47143244  .00000465  00000+0  31542-3 0  9995
2 67476  44.9833 318.5522 0013026  45.5358 314.6543 14.13523703  2648
TIANQI-38               
1 67477U 26010B   26034.04433485  .00000495  00000+0  32908-3 0  9998
2 67477  44.9787 320.4549 0012015  47.1976 312.9871 14.13900802  2586
TIANQI-39               
1 67478U 26010C   26034.47088325  .00000444  00000+0  30683-3 0  9997
2 67478  44.9846 318.5504 0016554  57.8536 302.3906 14.13050473  2643
TIANQI-40               
1 67479U 26010D   26034.46833676  .00000483  00000+0  32348-3 0  9997
2 67479  44.9840 318.5341 0012382  58.6014 301.6034 14.13798997  2646
SZ-20 MODULE            
1 67481U 25082C   26034.12984987  .00022910  00000+0  25566-3 0  9996
2 67481  41.4790  58.0232 0006130  83.9618 276.1920 15.62224056272212
ION SCV-021             
1 67483U 25276DT  26034.18636465  .00001099  00000+0  99302-4 0  9999
2 67483  97.5400 109.5002 0011491 211.3853 148.6685 14.97380347  2557
STARLINK-36551          
1 67493U 26012A   26034.50002314 -.01169913  00000+0 -61171-2 0  9999
2 67493  42.9968 151.0688 0001513 270.9833  31.9004 15.82393277  3579
STARLINK-36396          
1 67494U 26012B   26034.50002314 -.02490049  00000+0 -20765-1 0  9991
2 67494  42.9995 151.1726 0001213 269.3168 352.0263 15.72381134  3576
STARLINK-36550          
1 67495U 26012C   26034.50002314 -.01946046  00000+0 -12292-1 0  9990
2 67495  42.9972 151.0613 0001305 271.4039  34.4096 15.78890199  3576
