CCSDS_OMM_VERS = 2.0
CREATION_DATE  = 
ORIGINATOR     = 

OBJECT_NAME    = STARLINK-36408
OBJECT_ID      = 2026-008AE
CENTER_NAME    = EARTH
REF_FRAME      = TEME
TIME_SYSTEM    = UTC
MEAN_ELEMENT_THEORY = SGP/SGP4

EPOCH          = 2026-02-03T12:00:01.999296
MEAN_MOTION    = 15.66718035
ECCENTRICITY   = .0001111
INCLINATION    = 42.9997
RA_OF_ASC_NODE = 40.6592
ARG_OF_PERICENTER = 283.9769
MEAN_ANOMALY   = 170.1520

EPHEMERIS_TYPE = 0
CLASSIFICATION_TYPE = U
NORAD_CAT_ID   = 67473
ELEMENT_SET_NO = 999
REV_AT_EPOCH   = 432
BSTAR          = -.21383E-1
MEAN_MOTION_DOT = -.2032675E-1
MEAN_MOTION_DDOT = 0

CCSDS_OMM_VERS = 2.0
CREATION_DATE  = 
ORIGINATOR     = 

OBJECT_NAME    = ALSAT-3A
OBJECT_ID      = 2026-009A
CENTER_NAME    = EARTH
REF_FRAME      = TEME
TIME_SYSTEM    = UTC
MEAN_ELEMENT_THEORY = SGP/SGP4

EPOCH          = 2026-02-03T10:59:56.272416
MEAN_MOTION    = 15.23355913
ECCENTRICITY   = .0012039
INCLINATION    = 97.4690
RA_OF_ASC_NODE = 109.1430
ARG_OF_PERICENTER = 188.1434
MEAN_ANOMALY   = 171.9609

EPHEMERIS_TYPE = 0
CLASSIFICATION_TYPE = U
NORAD_CAT_ID   = 67474
ELEMENT_SET_NO = 999
REV_AT_EPOCH   = 291
BSTAR          = .31925E-3
MEAN_MOTION_DOT = .7531E-4
MEAN_MOTION_DDOT = 0

CCSDS_OMM_VERS = 2.0
CREATION_DATE  = 
ORIGINATOR     = 

OBJECT_NAME    = CZ-2C R/B
OBJECT_ID      = 2026-009B
CENTER_NAME    = EARTH
REF_FRAME      = TEME
TIME_SYSTEM    = UTC
MEAN_ELEMENT_THEORY = SGP/SGP4

EPOCH          = 2026-02-03T06:04:10.183296
MEAN_MOTION    = 15.03081095
ECCENTRICITY   = .0100076
INCLINATION    = 97.1776
RA_OF_ASC_NODE = 107.3294
ARG_OF_PERICENTER = 156.6973
MEAN_ANOMALY   = 203.8838

EPHEMERIS_TYPE = 0
CLASSIFICATION_TYPE = U
NORAD_CAT_ID   = 67475
ELEMENT_SET_NO = 999
REV_AT_EPOCH   = 290
BSTAR          = .26472E-3
MEAN_MOTION_DOT = .3922E-4
MEAN_MOTION_DDOT = 0

CCSDS_OMM_VERS = 2.0
CREATION_DATE  = 
ORIGINATOR     = 

OBJECT_NAME    = TIANQI-37
OBJECT_ID      = 2026-010A
CENTER_NAME    = EARTH
REF_FRAME      = TEME
TIME_SYSTEM    = UTC
MEAN_ELEMENT_THEORY = SGP/SGP4

EPOCH          = 2026-02-03T11:18:51.762816
MEAN_MOTION    = 14.13523703
ECCENTRICITY   = .0013026
INCLINATION    = 44.9833
RA_OF_ASC_NODE = 318.5522
ARG_OF_PERICENTER = 45.5358
MEAN_ANOMALY   = 314.6543

EPHEMERIS_TYPE = 0
CLASSIFICATION_TYPE = U
NORAD_CAT_ID   = 67476
ELEMENT_SET_NO = 999
REV_AT_EPOCH   = 264
BSTAR          = .31542E-3
MEAN_MOTION_DOT = .465E-5
MEAN_MOTION_DDOT = 0

CCSDS_OMM_VERS = 2.0
CREATION_DATE  = 
ORIGINATOR     = 

OBJECT_NAME    = TIANQI-38
OBJECT_ID      = 2026-010B
CENTER_NAME    = EARTH
REF_FRAME      = TEME
TIME_SYSTEM    = UTC
MEAN_ELEMENT_THEORY = SGP/SGP4

EPOCH          = 2026-02-03T01:03:50.531040
MEAN_MOTION    = 14.13900802
ECCENTRICITY   = .00120155
INCLINATION    = 44.9787
RA_OF_ASC_NODE = 320.4549
ARG_OF_PERICENTER = 47.1976
MEAN_ANOMALY   = 312.9871

EPHEMERIS_TYPE = 0
CLASSIFICATION_TYPE = U
NORAD_CAT_ID   = 67477
ELEMENT_SET_NO = 999
REV_AT_EPOCH   = 258
BSTAR          = .32908226E-3
MEAN_MOTION_DOT = .495E-5
MEAN_MOTION_DDOT = 0

CCSDS_OMM_VERS = 2.0
CREATION_DATE  = 
ORIGINATOR     = 

OBJECT_NAME    = TIANQI-39
OBJECT_ID      = 2026-010C
CENTER_NAME    = EARTH
REF_FRAME      = TEME
TIME_SYSTEM    = UTC
MEAN_ELEMENT_THEORY = SGP/SGP4

EPOCH          = 2026-02-03T11:18:04.312800
MEAN_MOTION    = 14.13050473
ECCENTRICITY   = .0016554
INCLINATION    = 44.9846
RA_OF_ASC_NODE = 318.5504
ARG_OF_PERICENTER = 57.8536
MEAN_ANOMALY   = 302.3906

EPHEMERIS_TYPE = 0
CLASSIFICATION_TYPE = U
NORAD_CAT_ID   = 67478
ELEMENT_SET_NO = 999
REV_AT_EPOCH   = 264
BSTAR          = .30683E-3
MEAN_MOTION_DOT = .444E-5
MEAN_MOTION_DDOT = 0

CCSDS_OMM_VERS = 2.0
CREATION_DATE  = 
ORIGINATOR     = 

OBJECT_NAME    = TIANQI-40
OBJECT_ID      = 2026-010D
CENTER_NAME    = EARTH
REF_FRAME      = TEME
TIME_SYSTEM    = UTC
MEAN_ELEMENT_THEORY = SGP/SGP4

EPOCH          = 2026-02-03T11:14:24.296064
MEAN_MOTION    = 14.13798997
ECCENTRICITY   = .0012382
INCLINATION    = 44.9840
RA_OF_ASC_NODE = 318.5341
ARG_OF_PERICENTER = 58.6014
MEAN_ANOMALY   = 301.6034

EPHEMERIS_TYPE = 0
CLASSIFICATION_TYPE = U
NORAD_CAT_ID   = 67479
ELEMENT_SET_NO = 999
REV_AT_EPOCH   = 264
BSTAR          = .32348E-3
MEAN_MOTION_DOT = .483E-5
MEAN_MOTION_DDOT = 0

CCSDS_OMM_VERS = 2.0
CREATION_DATE  = 
ORIGINATOR     = 

OBJECT_NAME    = SZ-20 MODULE
OBJECT_ID      = 2025-082C
CENTER_NAME    = EARTH
REF_FRAME      = TEME
TIME_SYSTEM    = UTC
MEAN_ELEMENT_THEORY = SGP/SGP4

EPOCH          = 2026-02-03T03:06:59.028768
MEAN_MOTION    = 15.62224056
ECCENTRICITY   = .00061301
INCLINATION    = 41.4790
RA_OF_ASC_NODE = 58.0232
ARG_OF_PERICENTER = 83.9618
MEAN_ANOMALY   = 276.1920

EPHEMERIS_TYPE = 0
CLASSIFICATION_TYPE = U
NORAD_CAT_ID   = 67481
ELEMENT_SET_NO = 999
REV_AT_EPOCH   = 27221
BSTAR          = .25566268E-3
MEAN_MOTION_DOT = .2291E-3
MEAN_MOTION_DDOT = 0

CCSDS_OMM_VERS = 2.0
CREATION_DATE  = 
ORIGINATOR     = 

OBJECT_NAME    = ION SCV-021
OBJECT_ID      = 2025-276DT
CENTER_NAME    = EARTH
REF_FRAME      = TEME
TIME_SYSTEM    = UTC
MEAN_ELEMENT_THEORY = SGP/SGP4

EPOCH          = 2026-02-03T04:28:21.905760
MEAN_MOTION    = 14.97380347
ECCENTRICITY   = .0011491
INCLINATION    = 97.5400
RA_OF_ASC_NODE = 109.5002
ARG_OF_PERICENTER = 211.3853
MEAN_ANOMALY   = 148.6685

EPHEMERIS_TYPE = 0
CLASSIFICATION_TYPE = U
NORAD_CAT_ID   = 67483
ELEMENT_SET_NO = 999
REV_AT_EPOCH   = 255
BSTAR          = .99302135E-4
MEAN_MOTION_DOT = .1099E-4
MEAN_MOTION_DDOT = 0

CCSDS_OMM_VERS = 2.0
CREATION_DATE  = 
ORIGINATOR     = 

OBJECT_NAME    = STARLINK-36551
OBJECT_ID      = 2026-012A
CENTER_NAME    = EARTH
REF_FRAME      = TEME
TIME_SYSTEM    = UTC
MEAN_ELEMENT_THEORY = SGP/SGP4

EPOCH          = 2026-02-03T12:00:01.999296
MEAN_MOTION    = 15.82393277
ECCENTRICITY   = .0001513
INCLINATION    = 42.9968
RA_OF_ASC_NODE = 151.0688
ARG_OF_PERICENTER = 270.9833
MEAN_ANOMALY   = 31.9004

EPHEMERIS_TYPE = 0
CLASSIFICATION_TYPE = U
NORAD_CAT_ID   = 67493
ELEMENT_SET_NO = 999
REV_AT_EPOCH   = 357
BSTAR          = -.61171E-2
MEAN_MOTION_DOT = -.1169913E-1
MEAN_MOTION_DDOT = 0

CCSDS_OMM_VERS = 2.0
CREATION_DATE  = 
ORIGINATOR     = 

OBJECT_NAME    = STARLINK-36396
OBJECT_ID      = 2026-012B
CENTER_NAME    = EARTH
REF_FRAME      = TEME
TIME_SYSTEM    = UTC
MEAN_ELEMENT_THEORY = SGP/SGP4

EPOCH          = 2026-02-03T12:00:01.999296
MEAN_MOTION    = 15.72381134
ECCENTRICITY   = .0001213
INCLINATION    = 42.9995
RA_OF_ASC_NODE = 151.1726
ARG_OF_PERICENTER = 269.3168
MEAN_ANOMALY   = 352.0263

EPHEMERIS_TYPE = 0
CLASSIFICATION_TYPE = U
NORAD_CAT_ID   = 67494
ELEMENT_SET_NO = 999
REV_AT_EPOCH   = 357
BSTAR          = -.20765E-1
MEAN_MOTION_DOT = -.2490049E-1
MEAN_MOTION_DDOT = 0

CCSDS_OMM_VERS = 2.0
CREATION_DATE  = 
ORIGINATOR     = 

OBJECT_NAME    = STARLINK-36550
OBJECT_ID      = 2026-012C
CENTER_NAME    = EARTH
REF_FRAME      = TEME
TIME_SYSTEM    = UTC
MEAN_ELEMENT_THEORY = SGP/SGP4

EPOCH          = 2026-02-03T12:00:01.999296
MEAN_MOTION    = 15.78890199
ECCENTRICITY   = .0001305
INCLINATION    = 42.9972
RA_OF_ASC_NODE = 151.0613
ARG_OF_PERICENTER = 271.4039
MEAN_ANOMALY   = 34.4096

EPHEMERIS_TYPE = 0
CLASSIFICATION_TYPE = U
NORAD_CAT_ID   = 67495
ELEMENT_SET_NO = 999
REV_AT_EPOCH   = 357
BSTAR          = -.12292E-1
MEAN_MOTION_DOT = -.1946046E-1
MEAN_MOTION_DDOT = 0

